DMSP 5D-3 F16 (USA 172) 
1 28054U 03048A   26187.28584491  .00000037  00000+0  42958-4 0  9990
2 28054  98.9886 211.2400 0008215  92.9734  82.0964 14.14484842172187
METEOSAT-9 (MSG-2)      
1 28912U 05049B   26187.22705944  .00000134  00000+0  00000+0 0  9993
2 28912   9.4015  53.9764 0002199   0.5290 357.1641  1.00268436  7187
DMSP 5D-3 F17 (USA 191) 
1 29522U 06050A   26187.26172724  .00000062  00000+0  54380-4 0  9997
2 29522  98.7381 193.4416 0010248   8.5378 351.5968 14.14995765 15129
FENGYUN 3A              
1 32958U 08026A   26186.86641291  .00000098  00000+0  67164-4 0  9997
2 32958  98.6885 127.3504 0009868  75.8539 284.3733 14.19575187938056
GOES 14                 
1 35491U 09033A   26187.24413286 -.00000333  00000+0  00000+0 0  9999
2 35491   1.7358  82.8188 0002074  32.4724  27.4082  1.00103191  6788
DMSP 5D-3 F18 (USA 210) 
1 35951U 09057A   26187.23432953  .00000214  00000+0  13361-3 0  9992
2 35951  98.9048 167.9629 0010698 191.0147 169.0794 14.14907434862289
EWS-G2 (GOES 15)        
1 36411U 10008A   26187.15959427  .00000035  00000+0  00000+0 0  9996
2 36411   1.3264  82.5873 0005339  49.1644 273.2764  1.00268284 59820
COMS 1                  
1 36744U 10032A   26186.93273753 -.00000156  00000+0  00000+0 0  9993
2 36744   4.8501  75.1336 0011571  14.3332 169.0738  0.99169425 51274
FENGYUN 3B              
1 37214U 10059A   26187.32785943  .00000394  00000+0  22689-3 0  9992
2 37214  98.9605 233.4228 0022905 130.6756 294.4890 14.14847404810132
SUOMI NPP               
1 37849U 11061A   26187.30127076  .00000079  00000+0  58604-4 0  9992
2 37849  98.7955 128.0470 0000573 283.2026  76.9086 14.19521378761153
METEOSAT-10 (MSG-3)     
1 38552U 12035B   26186.86188808  .00000005  00000+0  00000+0 0  9997
2 38552   4.7128  60.9260 0001375  17.7905 155.5125  1.00269685 51046
METOP-B                 
1 38771U 12049A   26187.26556271  .00000103  00000+0  66877-4 0  9991
2 38771  98.6494 238.3833 0001154 309.7988  50.3088 14.21444712715976
INSAT-3D                
1 39216U 13038B   26187.24395953 -.00000325  00000+0  00000+0 0  9999
2 39216   1.9721  82.3128 0000546  49.7302   9.5303  1.00273328 47273
FENGYUN 3C              
1 39260U 13052A   26187.26697407  .00000071  00000+0  57497-4 0  9999
2 39260  98.4998 160.2667 0014111 333.0658  26.9783 14.15759294661266
METEOR-M 2              
1 40069U 14037A   26187.22126439  .00000205  00000+0  11320-3 0  9993
2 40069  98.5129 162.2866 0005750 354.4488   5.6625 14.21467303622026
HIMAWARI-8              
1 40267U 14060A   26187.24612620 -.00000261  00000+0  00000+0 0  9995
2 40267   0.0147  39.5350 0000920  81.5600  32.4120  1.00270205 42958
FENGYUN 2G              
1 40367U 14090A   26186.86882733 -.00000289  00000+0  00000+0 0  9990
2 40367   5.6832  72.5945 0003714 150.2719 113.2645  1.00265023 42184
METEOSAT-11 (MSG-4)     
1 40732U 15034A   26187.29141672  .00000074  00000+0  00000+0 0  9994
2 40732   3.2481  70.9914 0002247 350.5285 336.9460  1.00269073  7409
ELEKTRO-L 2             
1 41105U 15074A   26186.93027453 -.00000106  00000+0  00000+0 0  9990
2 41105   6.7384  70.2943 0000596 255.0166 278.9782  1.00273562 38696
SENTINEL-3A             
1 41335U 16011A   26187.29189585  .00000105  00000+0  61512-4 0  9990
2 41335  98.6241 254.4004 0001412  93.1880 266.9462 14.26738105540780
INSAT-3DR               
1 41752U 16054A   26187.13239234 -.00000063  00000+0  00000+0 0  9994
2 41752   0.0464  89.5042 0010330 181.5400 134.7299  1.00272430 36002
HIMAWARI-9              
1 41836U 16064A   26187.24621287 -.00000260  00000+0  00000+0 0  9992
2 41836   0.0155 289.0129 0001292 214.8166   9.7982  1.00272247 35400
GOES 16                 
1 41866U 16071A   26187.26888329 -.00000077  00000+0  00000+0 0  9993
2 41866   0.3848  85.6572 0000489  59.8836 130.8264  1.00271680 35291
FENGYUN 4A              
1 41882U 16077A   26187.31412299 -.00000343  00000+0  00000+0 0  9998
2 41882   2.3680  80.0782 0008063 157.9033 283.1760  1.00273780 35120
CYGFM05                 
1 41884U 16078A   26187.22137499  .00025774  00000+0  33767-3 0  9991
2 41884  34.9562 134.4688 0007683 314.5929  45.4168 15.57538608531721
CYGFM04                 
1 41885U 16078B   26187.13139866  .00033259  00000+0  35781-3 0  9997
2 41885  34.9321 101.7807 0005839 349.7202  10.3403 15.62650360531965
CYGFM02                 
1 41886U 16078C   26187.15850162  .00040064  00000+0  37913-3 0  9990
2 41886  34.9400  95.5638 0006666 354.1281   5.9367 15.65845080532140
CYGFM01                 
1 41887U 16078D   26187.26568215  .00026325  00000+0  33577-3 0  9994
2 41887  34.9389 135.0751 0007562 309.1565  50.8488 15.58247186531680
CYGFM08                 
1 41888U 16078E   26187.12774630  .00031131  00000+0  35616-3 0  9997
2 41888  34.9424 115.0587 0007984 338.7747  21.2646 15.61061717531938
CYGFM07                 
1 41890U 16078G   26187.14963022  .00031423  00000+0  35818-3 0  9995
2 41890  34.9442 103.2376 0006220 350.8300   9.2312 15.61171459531962
CYGFM03                 
1 41891U 16078H   26187.18469069  .00030928  00000+0  35269-3 0  9991
2 41891  34.9396 104.9358 0006251 337.7456  22.2998 15.61162045531943
