OBJECT_NAME,OBJECT_ID,EPOCH,MEAN_MOTION,ECCENTRICITY,INCLINATION,RA_OF_ASC_NODE,ARG_OF_PERICENTER,MEAN_ANOMALY,EPHEMERIS_TYPE,CLASSIFICATION_TYPE,NORAD_CAT_ID,ELEMENT_SET_NO,REV_AT_EPOCH,BSTAR,MEAN_MOTION_DOT,MEAN_MOTION_DDOT
DMSP 5D-3 F16 (USA 172),2003-048A,2026-07-06T06:51:37.000224,14.14484842,.00082153,98.9886,211.2400,92.9734,82.0964,0,U,28054,999,17218,.42958005E-4,.37E-6,0
METEOSAT-9 (MSG-2),2005-049B,2026-07-06T05:26:57.935616,1.00268436,.00021997,9.4015,53.9764,0.5290,357.1641,0,U,28912,999,718,0,.134E-5,0
DMSP 5D-3 F17 (USA 191),2006-050A,2026-07-06T06:16:53.233536,14.14995765,.00102482,98.7381,193.4416,8.5378,351.5968,0,U,29522,999,1512,.54380394E-4,.62E-6,0
FENGYUN 3A,2008-026A,2026-07-05T20:47:38.075424,14.19575187,.00098687,98.6885,127.3504,75.8539,284.3733,0,U,32958,999,93805,.67164299E-4,.98E-6,0
GOES 14,2009-033A,2026-07-06T05:51:33.079104,1.00103191,.00020745,1.7358,82.8188,32.4724,27.4082,0,U,35491,999,678,0,-.333E-5,0
DMSP 5D-3 F18 (USA 210),2009-057A,2026-07-06T05:37:26.071392,14.14907434,.00106981,98.9048,167.9629,191.0147,169.0794,0,U,35951,999,86228,.1336109E-3,.214E-5,0
EWS-G2 (GOES 15),2010-008A,2026-07-06T03:49:48.944928,1.00268284,.00053391,1.3264,82.5873,49.1644,273.2764,0,U,36411,999,5982,0,.35E-6,0
COMS 1,2010-032A,2026-07-05T22:23:08.522592,0.99169425,.00115712,4.8501,75.1336,14.3332,169.0738,0,U,36744,999,5127,0,-.156E-5,0
FENGYUN 3B,2010-059A,2026-07-06T07:52:07.054752,14.14847404,.00229053,98.9605,233.4228,130.6756,294.4890,0,U,37214,999,81013,.226894E-3,.394E-5,0
SUOMI NPP,2011-061A,2026-07-06T07:13:49.793664,14.19521378,.00005736,98.7955,128.0470,283.2026,76.9086,0,U,37849,999,76115,.58603936E-4,.79E-6,0
METEOSAT-10 (MSG-3),2012-035B,2026-07-05T20:41:07.130112,1.00269685,.00013756,4.7128,60.9260,17.7905,155.5125,0,U,38552,999,5104,0,.5E-7,0
METOP-B,2012-049A,2026-07-06T06:22:24.618144,14.21444712,.00011542,98.6494,238.3833,309.7988,50.3088,0,U,38771,999,71597,.6687728E-4,.103E-5,0
INSAT-3D,2013-038B,2026-07-06T05:51:18.103392,1.00273328,.00005468,1.9721,82.3128,49.7302,9.5303,0,U,39216,999,4727,0,-.325E-5,0
FENGYUN 3C,2013-052A,2026-07-06T06:24:26.559648,14.15759294,.0014111,98.4998,160.2667,333.0658,26.9783,0,U,39260,999,66126,.57497327E-4,.71E-6,0
METEOR-M 2,2014-037A,2026-07-06T05:18:37.243296,14.21467303,.00057507,98.5129,162.2866,354.4488,5.6625,0,U,40069,999,62202,.1132041E-3,.205E-5,0
HIMAWARI-8,2014-060A,2026-07-06T05:54:25.303680,1.00270205,.00009205,0.0147,39.5350,81.5600,32.4120,0,U,40267,999,4295,0,-.261E-5,0
FENGYUN 2G,2014-090A,2026-07-05T20:51:06.681312,1.00265023,.00037148,5.6832,72.5945,150.2719,113.2645,0,U,40367,999,4218,0,-.289E-5,0
METEOSAT-11 (MSG-4),2015-034A,2026-07-06T06:59:38.404608,1.00269073,.00022473,3.2481,70.9914,350.5285,336.9460,0,U,40732,999,740,0,.74E-6,0
ELEKTRO-L 2,2015-074A,2026-07-05T22:19:35.719392,1.00273562,.00005965,6.7384,70.2943,255.0166,278.9782,0,U,41105,999,3869,0,-.106E-5,0
SENTINEL-3A,2016-011A,2026-07-06T07:00:19.801440,14.26738105,.0001412,98.6241,254.4004,93.1880,266.9462,0,U,41335,999,54078,.61512371E-4,.105E-5,0
INSAT-3DR,2016-054A,2026-07-06T03:10:38.698176,1.00272430,.00103309,0.0464,89.5042,181.5400,134.7299,0,U,41752,999,3600,0,-.63E-6,0
HIMAWARI-9,2016-064A,2026-07-06T05:54:32.791968,1.00272247,.0001292,0.0155,289.0129,214.8166,9.7982,0,U,41836,999,3540,0,-.26E-5,0
GOES 16,2016-071A,2026-07-06T06:27:11.516256,1.00271680,.00004895,0.3848,85.6572,59.8836,130.8264,0,U,41866,999,3529,0,-.77E-6,0
FENGYUN 4A,2016-077A,2026-07-06T07:32:20.226336,1.00273780,.00080632,2.3680,80.0782,157.9033,283.1760,0,U,41882,999,3512,0,-.343E-5,0
CYGFM05,2016-078A,2026-07-06T05:18:46.799136,15.57538608,.00076837,34.9562,134.4688,314.5929,45.4168,0,U,41884,999,53172,.33767477E-3,.25774E-3,0
CYGFM04,2016-078B,2026-07-06T03:09:12.844224,15.62650360,.00058397,34.9321,101.7807,349.7202,10.3403,0,U,41885,999,53196,.35780628E-3,.33259E-3,0
CYGFM02,2016-078C,2026-07-06T03:48:14.539968,15.65845080,.00066661,34.9400,95.5638,354.1281,5.9367,0,U,41886,999,53214,.37913118E-3,.40064E-3,0
CYGFM01,2016-078D,2026-07-06T06:22:34.937760,15.58247186,.00075625,34.9389,135.0751,309.1565,50.8488,0,U,41887,999,53168,.33576929E-3,.26325E-3,0
CYGFM08,2016-078E,2026-07-06T03:03:57.280320,15.61061717,.00079843,34.9424,115.0587,338.7747,21.2646,0,U,41888,999,53193,.35616383E-3,.31131E-3,0
CYGFM07,2016-078G,2026-07-06T03:35:28.051008,15.61171459,.00062204,34.9442,103.2376,350.8300,9.2312,0,U,41890,999,53196,.35818183E-3,.31423E-3,0
CYGFM03,2016-078H,2026-07-06T04:25:57.275616,15.61162045,.00062512,34.9396,104.9358,337.7456,22.2998,0,U,41891,999,53194,.35269196E-3,.30928E-3,0
